[{"OBJECT_NAME":"YAOGAN-31 01A","OBJECT_ID":"2018-034A","EPOCH":"2026-03-09T23:44:11.767776","MEAN_MOTION":13.45451916,"ECCENTRICITY":0.02667971,"INCLINATION":63.3985,"RA_OF_ASC_NODE":346.5133,"ARG_OF_PERICENTER":7.1103,"MEAN_ANOMALY":353.359,"EPHEMERIS_TYPE":0,"CLASSIFICATION_TYPE":"U","NORAD_CAT_ID":43275,"ELEMENT_SET_NO":999,"REV_AT_EPOCH":38875,"BSTAR":-7.1923927e-5,"MEAN_MOTION_DOT":-1.43e-6,"MEAN_MOTION_DDOT":0},{"OBJECT_NAME":"DELTA 1 DEB","OBJECT_ID":"1975-052FB","EPOCH":"2026-03-09T09:39:47.388384","MEAN_MOTION":13.50210642,"ECCENTRICITY":0.00270081,"INCLINATION":99.7192,"RA_OF_ASC_NODE":230.9984,"ARG_OF_PERICENTER":129.7987,"MEAN_ANOMALY":285.6871,"EPHEMERIS_TYPE":0,"CLASSIFICATION_TYPE":"U","NORAD_CAT_ID":21467,"ELEMENT_SET_NO":999,"REV_AT_EPOCH":71463,"BSTAR":0.00041729358,"MEAN_MOTION_DOT":2.24e-6,"MEAN_MOTION_DDOT":0}]
